COSMOS 2251 DEB         
1 34028U 93036HP  17345.85713816  .00000011  00000-0  33636-4 0  9994
2 34028  73.8810 137.4060 0552858  42.8528  64.5278 13.18496192424656
